ONEWEB-0636             
1 56077U 23043AH  26162.66009936  .00000024  00000+0  30442-4 0  9995
2 56077  87.9006 260.2988 0002001  94.4374 265.6985 13.15549159155685
ONEWEB-0637             
1 56078U 23043AJ  26162.65376431  .00000063  00000+0  13388-3 0  9994
2 56078  87.9001 260.3169 0002257  97.9854 262.1532 13.15548937155703
ONEWEB-0647             
1 56079U 23043AK  26162.64901377  .00000086  00000+0  19306-3 0  9998
2 56079  87.9000 260.3303 0001826  97.0832 263.0506 13.15548349155697
ONEWEB-0651             
1 56080U 23043AL  26162.72031427  .00000235  00000+0  58992-3 0  9999
2 56080  87.8999 260.3098 0002123  95.1267 265.0106 13.15548537156900
ONEWEB-0718             
1 56081U 23043AM  26162.63948087  .00000150  00000+0  36523-3 0  9991
2 56081  87.8998 260.3064 0002282 112.2201 247.9172 13.15551023155701
ONEWEB-0561             
1 56710U 23068A   26162.59168097  .00000091  00000+0  19185-3 0  9996
2 56710  87.9193 275.5583 0001804  89.3687 270.7653 13.20771179148761
ONEWEB-0668             
1 56711U 23068B   26162.65315286  .00000009  00000+0 -90410-5 0  9990
2 56711  87.9100 229.8712 0002561 102.3172 257.8246 13.16594148151056
ONEWEB-0676             
1 56712U 23068C   26162.66105404 -.00000027  00000+0 -10433-3 0  9997
2 56712  87.9101 229.8754 0002089  88.5662 271.5708 13.16593083150971
ONEWEB-0677             
1 56713U 23068D   26162.27684905  .00000078  00000+0  15941-3 0  9996
2 56713  87.9191 275.6126 0002315  94.5966 265.5431 13.20770047149021
ONEWEB-0678             
1 56714U 23068E   26162.68386181 -.00000147  00000+0 -42350-3 0  9990
2 56714  87.9011 260.2892 0001682  99.8153 260.3167 13.15548264148560
ONEWEB-0679             
1 56715U 23068F   26162.69589919 -.00000031  00000+0 -11489-3 0  9997
2 56715  87.9096 229.8603 0002607  93.7906 266.3523 13.16593783151004
ONEWEB-0680             
1 56716U 23068G   26162.64574948 -.00000012  00000+0 -61286-4 0  9999
2 56716  87.9263 245.0730 0002626 101.1419 259.0011 13.21827535150366
ONEWEB-0681             
1 56717U 23068H   26162.62640428 -.00000020  00000+0 -81127-4 0  9990
2 56717  87.9257 245.0783 0002198  73.4712 286.6664 13.21826777150355
ONEWEB-0682             
1 56718U 23068J   26162.70763949  .00000080  00000+0  17882-3 0  9994
2 56718  87.9005 260.2852 0002516 102.0520 258.0893 13.15548170148730
ONEWEB-0683             
1 56719U 23068K   26162.65534993  .00000101  00000+0  23441-3 0  9996
2 56719  87.9012 260.2951 0002213 104.6639 255.4737 13.15549031148692
ONEWEB-0684             
1 56720U 23068L   26162.66326705 -.00000015  00000+0 -73243-4 0  9991
2 56720  87.9009 260.2836 0001161 142.6589 217.4622 13.15547904148529
ONEWEB-0686             
1 56721U 23068M   26162.65632154 -.00000008  00000+0 -55387-4 0  9990
2 56721  87.9092 229.8918 0002144 107.3882 252.7484 13.16594580150984
ONEWEB-0694             
1 56722U 23068N   26162.66265146 -.00000071  00000+0 -22039-3 0  9992
2 56722  87.9112 229.8539 0002514 101.3559 258.7854 13.16594692151042
ONEWEB-0696             
1 56723U 23068P   26162.69652125 -.00000095  00000+0 -28698-3 0  9996
2 56723  87.8999 260.3157 0001489  98.6100 261.5199 13.15546322148643
ONEWEB-0703             
1 56724U 23068Q   26162.62999382  .00000042  00000+0  78605-4 0  9993
2 56724  87.8999 260.3102 0001267  81.4621 278.6652 13.15548310148525
ONEWEB-0721             
1 56725U 23068R   26162.54111384  .00000010  00000+0 -97466-5 0  9996
2 56725  86.6768  87.3182 0001920  78.2563 281.8786 13.22468888157193
ONEWEB-0015             
1 61594U 24188A   26162.58720477  .00000335  00000+0  91050-3 0  9993
2 61594  87.8892  22.2081 0002284  75.8714 284.2667 13.11419500 83722
ONEWEB-0687             
1 61595U 24188B   26162.61150169  .00000007  00000+0 -14198-4 0  9999
2 61595  87.9130   6.9864 0002352  89.3318 270.8083 13.17647384 85165
ONEWEB-0688             
1 61596U 24188C   26162.56425511  .00000067  00000+0  14006-3 0  9992
2 61596  87.9131   6.9953 0002861  69.6101 290.5338 13.17648497 85159
ONEWEB-0689             
1 61597U 24188D   26162.62110814 -.00000107  00000+0 -33777-3 0  9990
2 61597  87.8903  22.1584 0002009  92.3932 267.7426 13.11416273 83729
ONEWEB-0690             
1 61598U 24188E   26162.63127805 -.00000569  00000+0 -16411-2 0  9997
2 61598  87.8900  22.1680 0001369  67.1075 293.0198 13.11415073 83905
ONEWEB-0691             
1 61599U 24188F   26162.62620277 -.00000375  00000+0 -10941-2 0  9995
2 61599  87.8907  22.0775 0002176  80.5441 279.5933 13.11415006 83755
ONEWEB-0692             
1 61600U 24188G   26162.57023842 -.00000429  00000+0 -12472-2 0  9998
2 61600  87.8891  22.2029 0001685 110.8081 249.3228 13.11419398 83733
ONEWEB-0693             
1 61601U 24188H   26162.57606219  .00000041  00000+0  71736-4 0  9992
2 61601  87.9128   7.0132 0001496  62.2007 297.9276 13.17647983 85140
ONEWEB-0695             
1 61602U 24188J   26162.62280764 -.00000174  00000+0 -52702-3 0  9992
2 61602  87.8889  22.1844 0001942 100.9002 259.2344 13.11414321 83735
